{
  "type": "FeatureCollection",
  "features": [
    {
      "type": "Feature",
      "properties": {
        "norad_id": 44333,
        "name": "AT&T T-16",
        "group": "intelsat",
        "lat": 0.005607033313902902,
        "lon": -166.3200341923011,
        "alt_km": 35783.54511170885,
        "timestamp": "2025-12-06T14:35:36.795382+00:00",
        "meta_object_name": "AT&T T-16",
        "meta_object_id": "2019-034A",
        "meta_epoch": "2025-12-05T21:46:40.325088",
        "meta_mean_motion": 1.00271318,
        "meta_eccentricity": 6.937e-05,
        "meta_inclination": 0.0289,
        "meta_ra_of_asc_node": 66.1436,
        "meta_arg_of_pericenter": 104.688,
        "meta_mean_anomaly": 129.9319,
        "meta_ephemeris_type": 0,
        "meta_classification_type": "U",
        "meta_norad_cat_id": 44333,
        "meta_element_set_no": 999,
        "meta_rev_at_epoch": 2369,
        "meta_bstar": 0,
        "meta_mean_motion_dot": -1.06e-06,
        "meta_mean_motion_ddot": 0,
        "tle_line1": "1 44333U 19034A   25339.90741117 -.00000106  00000+0  00000+0 0  9992",
        "tle_line2": "2 44333   0.0289  66.1436 0000693 104.6880 129.9319  1.00271318 23696"
      },
      "geometry": {
        "type": "Point",
        "coordinates": [
          -166.3200341923011,
          0.005607033313902902
        ]
      }
    },
    {
      "type": "Feature",
      "properties": {
        "norad_id": 44476,
        "name": "INTELSAT 39 (IS-39)",
        "group": "intelsat",
        "lat": 0.0188246466568951,
        "lon": -3.520436475565679,
        "alt_km": 35789.777345661525,
        "timestamp": "2025-12-06T14:35:36.795394+00:00",
        "meta_object_name": "INTELSAT 39 (IS-39)",
        "meta_object_id": "2019-049B",
        "meta_epoch": "2025-12-06T05:23:59.579232",
        "meta_mean_motion": 1.0027014,
        "meta_eccentricity": 8.181e-05,
        "meta_inclination": 0.0171,
        "meta_ra_of_asc_node": 327.3545,
        "meta_arg_of_pericenter": 190.9753,
        "meta_mean_anomaly": 59.8838,
        "meta_ephemeris_type": 0,
        "meta_classification_type": "U",
        "meta_norad_cat_id": 44476,
        "meta_element_set_no": 999,
        "meta_rev_at_epoch": 2319,
        "meta_bstar": 0,
        "meta_mean_motion_dot": 4.2e-07,
        "meta_mean_motion_ddot": 0,
        "tle_line1": "1 44476U 19049B   25340.22499513  .00000042  00000+0  00000+0 0  9991",
        "tle_line2": "2 44476   0.0171 327.3545 0000818 190.9753  59.8838  1.00270140 23197"
      },
      "geometry": {
        "type": "Point",
        "coordinates": [
          -3.520436475565679,
          0.0188246466568951
        ]
      }
    },
    {
      "type": "Feature",
      "properties": {
        "norad_id": 46114,
        "name": "GALAXY 30 (G-30)",
        "group": "intelsat",
        "lat": -0.008629706793548441,
        "lon": 169.50627882524336,
        "alt_km": 35785.24215415676,
        "timestamp": "2025-12-06T14:35:36.795405+00:00",
        "meta_object_name": "GALAXY 30 (G-30)",
        "meta_object_id": "2020-056C",
        "meta_epoch": "2025-12-06T06:13:24.843648",
        "meta_mean_motion": 1.0027024,
        "meta_eccentricity": 0.00024879,
        "meta_inclination": 0.016,
        "meta_ra_of_asc_node": 339.3733,
        "meta_arg_of_pericenter": 273.2782,
        "meta_mean_anomaly": 151.0031,
        "meta_ephemeris_type": 0,
        "meta_classification_type": "U",
        "meta_norad_cat_id": 46114,
        "meta_element_set_no": 999,
        "meta_rev_at_epoch": 1935,
        "meta_bstar": 0,
        "meta_mean_motion_dot": 4.5e-07,
        "meta_mean_motion_ddot": 0,
        "tle_line1": "1 46114U 20056C   25340.25931532  .00000045  00000+0  00000+0 0  9990",
        "tle_line2": "2 46114   0.0160 339.3733 0002487 273.2782 151.0031  1.00270240 19353"
      },
      "geometry": {
        "type": "Point",
        "coordinates": [
          169.50627882524336,
          -0.008629706793548441
        ]
      }
    },
    {
      "type": "Feature",
      "properties": {
        "norad_id": 54026,
        "name": "GALAXY 33 (G-33)",
        "group": "intelsat",
        "lat": 0.013481371452663152,
        "lon": 161.5097320621923,
        "alt_km": 35786.407707438375,
        "timestamp": "2025-12-06T14:35:36.795416+00:00",
        "meta_object_name": "GALAXY 33 (G-33)",
        "meta_object_id": "2022-128A",
        "meta_epoch": "2025-12-06T05:54:31.029408",
        "meta_mean_motion": 1.00269982,
        "meta_eccentricity": 0.00022492,
        "meta_inclination": 0.0173,
        "meta_ra_of_asc_node": 36.0908,
        "meta_arg_of_pericenter": 214.4821,
        "meta_mean_anomaly": 140.3457,
        "meta_ephemeris_type": 0,
        "meta_classification_type": "U",
        "meta_norad_cat_id": 54026,
        "meta_element_set_no": 999,
        "meta_rev_at_epoch": 1180,
        "meta_bstar": 0,
        "meta_mean_motion_dot": 8.7e-07,
        "meta_mean_motion_ddot": 0,
        "tle_line1": "1 54026U 22128A   25340.24619247  .00000087  00000+0  00000+0 0  9994",
        "tle_line2": "2 54026   0.0173  36.0908 0002249 214.4821 140.3457  1.00269982 11806"
      },
      "geometry": {
        "type": "Point",
        "coordinates": [
          161.5097320621923,
          0.013481371452663152
        ]
      }
    },
    {
      "type": "Feature",
      "properties": {
        "norad_id": 54027,
        "name": "GALAXY 34 (G-34)",
        "group": "intelsat",
        "lat": -0.004737176660047995,
        "lon": 165.5804151321786,
        "alt_km": 35785.8422696019,
        "timestamp": "2025-12-06T14:35:36.795428+00:00",
        "meta_object_name": "GALAXY 34 (G-34)",
        "meta_object_id": "2022-128B",
        "meta_epoch": "2025-12-06T05:56:29.506272",
        "meta_mean_motion": 1.00269731,
        "meta_eccentricity": 0.00013375,
        "meta_inclination": 0.0207,
        "meta_ra_of_asc_node": 342.5659,
        "meta_arg_of_pericenter": 264.9149,
        "meta_mean_anomaly": 147.9933,
        "meta_ephemeris_type": 0,
        "meta_classification_type": "U",
        "meta_norad_cat_id": 54027,
        "meta_element_set_no": 999,
        "meta_rev_at_epoch": 1197,
        "meta_bstar": 0,
        "meta_mean_motion_dot": 0,
        "meta_mean_motion_ddot": 0,
        "tle_line1": "1 54027U 22128B   25340.24756373  .00000000  00000+0  00000+0 0  9992",
        "tle_line2": "2 54027   0.0207 342.5659 0001337 264.9149 147.9933  1.00269731 11975"
      },
      "geometry": {
        "type": "Point",
        "coordinates": [
          165.5804151321786,
          -0.004737176660047995
        ]
      }
    },
    {
      "type": "Feature",
      "properties": {
        "norad_id": 54243,
        "name": "GALAXY 31 (G-31)",
        "group": "intelsat",
        "lat": 0.0017032050201306913,
        "lon": 173.51565478219575,
        "alt_km": 35786.76632674876,
        "timestamp": "2025-12-06T14:35:36.795439+00:00",
        "meta_object_name": "GALAXY 31 (G-31)",
        "meta_object_id": "2022-153A",
        "meta_epoch": "2025-12-06T06:14:32.237376",
        "meta_mean_motion": 1.00270777,
        "meta_eccentricity": 0.00019728,
        "meta_inclination": 0.0101,
        "meta_ra_of_asc_node": 58.837,
        "meta_arg_of_pericenter": 207.6603,
        "meta_mean_anomaly": 141.4417,
        "meta_ephemeris_type": 0,
        "meta_classification_type": "U",
        "meta_norad_cat_id": 54243,
        "meta_element_set_no": 999,
        "meta_rev_at_epoch": 519,
        "meta_bstar": 0,
        "meta_mean_motion_dot": 2.1e-07,
        "meta_mean_motion_ddot": 0,
        "tle_line1": "1 54243U 22153A   25340.26009534  .00000021  00000+0  00000+0 0  9995",
        "tle_line2": "2 54243   0.0101  58.8370 0001972 207.6603 141.4417  1.00270777  5194"
      },
      "geometry": {
        "type": "Point",
        "coordinates": [
          173.51565478219575,
          0.0017032050201306913
        ]
      }
    },
    {
      "type": "Feature",
      "properties": {
        "norad_id": 54244,
        "name": "GALAXY 32 (G-32)",
        "group": "intelsat",
        "lat": -0.02441172716236521,
        "lon": -156.4515423429099,
        "alt_km": 35786.050548779516,
        "timestamp": "2025-12-06T14:35:36.795451+00:00",
        "meta_object_name": "GALAXY 32 (G-32)",
        "meta_object_id": "2022-153B",
        "meta_epoch": "2025-12-04T13:17:37.099104",
        "meta_mean_motion": 1.00275803,
        "meta_eccentricity": 0.00027886,
        "meta_inclination": 0.0107,
        "meta_ra_of_asc_node": 343.0801,
        "meta_arg_of_pericenter": 315.5746,
        "meta_mean_anomaly": 243.3847,
        "meta_ephemeris_type": 0,
        "meta_classification_type": "U",
        "meta_norad_cat_id": 54244,
        "meta_element_set_no": 999,
        "meta_rev_at_epoch": 1119,
        "meta_bstar": 0,
        "meta_mean_motion_dot": -1.6e-06,
        "meta_mean_motion_ddot": 0,
        "tle_line1": "1 54244U 22153B   25338.55390161 -.00000160  00000+0  00000+0 0  9999",
        "tle_line2": "2 54244   0.0107 343.0801 0002788 315.5746 243.3847  1.00275803 11193"
      },
      "geometry": {
        "type": "Point",
        "coordinates": [
          -156.4515423429099,
          -0.02441172716236521
        ]
      }
    }
  ]
}